{
  "60486": {
    "name": "PlanetScope-60486",
    "line1": "1 60486U 24149U   26062.78980838  .00029060  00000-0  75661-3 0  9996",
    "line2": "2 60486  97.3798 146.2243 0002761 280.7476  79.3458 15.38842053 86123",
    "meta": {
      "display_name": "PlanetScope-60486",
      "type": "optical",
      "swath_km": 8.0,
      "resolution_m": 4.0,
      "off_nadir_deg": 0,
      "altitude_km": 525.0,
      "priority": 10
    }
  },
  "60487": {
    "name": "PlanetScope-60487",
    "line1": "1 60487U 24149V   26062.77702445  .00021296  00000-0  61345-3 0  9999",
    "line2": "2 60487  97.3855 145.4256 0001212 245.3776 114.7342 15.35765645 86048",
    "meta": {
      "display_name": "PlanetScope-60487",
      "type": "optical",
      "swath_km": 8.0,
      "resolution_m": 4.0,
      "off_nadir_deg": 0,
      "altitude_km": 525.0,
      "priority": 10
    }
  },
  "60488": {
    "name": "PlanetScope-60488",
    "line1": "1 60488U 24149W   26062.76177986  .00030886  00000-0  78383-3 0  9990",
    "line2": "2 60488  97.3852 146.8074 0001691 275.0133  85.0920 15.39617093 86136",
    "meta": {
      "display_name": "PlanetScope-60488",
      "type": "optical",
      "swath_km": 8.0,
      "resolution_m": 4.0,
      "off_nadir_deg": 0,
      "altitude_km": 525.0,
      "priority": 10
    }
  },
  "60489": {
    "name": "PlanetScope-60489",
    "line1": "1 60489U 24149X   26062.75245674  .00018555  00000-0  54728-3 0  9996",
    "line2": "2 60489  97.3761 144.5439 0002409 272.9939  87.1029 15.35048978 86021",
    "meta": {
      "display_name": "PlanetScope-60489",
      "type": "optical",
      "swath_km": 8.0,
      "resolution_m": 4.0,
      "off_nadir_deg": 0,
      "altitude_km": 525.0,
      "priority": 10
    }
  },
  "60490": {
    "name": "PlanetScope-60490",
    "line1": "1 60490U 24149Y   26062.78297125  .00019060  00000-0  56849-3 0  9997",
    "line2": "2 60490  97.3840 144.8931 0002066 286.6187  73.4829 15.34690181 86010",
    "meta": {
      "display_name": "PlanetScope-60490",
      "type": "optical",
      "swath_km": 8.0,
      "resolution_m": 4.0,
      "off_nadir_deg": 0,
      "altitude_km": 525.0,
      "priority": 10
    }
  },
  "60491": {
    "name": "PlanetScope-60491",
    "line1": "1 60491U 24149Z   26062.79653339  .00100022  00000-0  25383-2 0  9999",
    "line2": "2 60491  97.3776 145.9209 0002894 330.3233  29.7849 15.39283489 86118",
    "meta": {
      "display_name": "PlanetScope-60491",
      "type": "optical",
      "swath_km": 8.0,
      "resolution_m": 4.0,
      "off_nadir_deg": 0,
      "altitude_km": 525.0,
      "priority": 10
    }
  },
  "60492": {
    "name": "PlanetScope-60492",
    "line1": "1 60492U 24149AA  26062.76836804  .00021886  00000-0  61791-3 0  9991",
    "line2": "2 60492  97.3835 145.5434 0002023 262.1349  97.9666 15.36388966 86055",
    "meta": {
      "display_name": "PlanetScope-60492",
      "type": "optical",
      "swath_km": 8.0,
      "resolution_m": 4.0,
      "off_nadir_deg": 0,
      "altitude_km": 525.0,
      "priority": 10
    }
  },
  "60494": {
    "name": "PlanetScope-60494",
    "line1": "1 60494U 24149AC  26062.77260442  .00027808  00000-0  75786-3 0  9992",
    "line2": "2 60494  97.3789 145.5932 0002690 288.4304  71.6648 15.37439265 86082",
    "meta": {
      "display_name": "PlanetScope-60494",
      "type": "optical",
      "swath_km": 8.0,
      "resolution_m": 4.0,
      "off_nadir_deg": 0,
      "altitude_km": 525.0,
      "priority": 10
    }
  },
  "60495": {
    "name": "PlanetScope-60495",
    "line1": "1 60495U 24149AD  26062.92584974  .00022947  00000-0  62021-3 0  9996",
    "line2": "2 60495  97.3835 146.4905 0002297 292.5426  67.5576 15.37737134 86135",
    "meta": {
      "display_name": "PlanetScope-60495",
      "type": "optical",
      "swath_km": 8.0,
      "resolution_m": 4.0,
      "off_nadir_deg": 0,
      "altitude_km": 525.0,
      "priority": 10
    }
  },
  "60497": {
    "name": "PlanetScope-60497",
    "line1": "1 60497U 24149AF  26062.75053133  .00025621  00000-0  68237-3 0  9994",
    "line2": "2 60497  97.3776 145.8206 0002612 290.6432  69.4533 15.38168747 86105",
    "meta": {
      "display_name": "PlanetScope-60497",
      "type": "optical",
      "swath_km": 8.0,
      "resolution_m": 4.0,
      "off_nadir_deg": 0,
      "altitude_km": 525.0,
      "priority": 10
    }
  },
  "60499": {
    "name": "PlanetScope-60499",
    "line1": "1 60499U 24149AH  26062.76100249  .00025023  00000-0  67026-3 0  9999",
    "line2": "2 60499  97.3857 146.3886 0001997 292.5181  67.5852 15.37998789 85483",
    "meta": {
      "display_name": "PlanetScope-60499",
      "type": "optical",
      "swath_km": 8.0,
      "resolution_m": 4.0,
      "off_nadir_deg": 0,
      "altitude_km": 525.0,
      "priority": 10
    }
  },
  "60501": {
    "name": "PlanetScope-60501",
    "line1": "1 60501U 24149AK  26062.80213934  .00029634  00000-0  76777-3 0  9999",
    "line2": "2 60501  97.3760 145.9975 0003031 291.2658  68.8264 15.38988330 86125",
    "meta": {
      "display_name": "PlanetScope-60501",
      "type": "optical",
      "swath_km": 8.0,
      "resolution_m": 4.0,
      "off_nadir_deg": 0,
      "altitude_km": 525.0,
      "priority": 10
    }
  },
  "60502": {
    "name": "PlanetScope-60502",
    "line1": "1 60502U 24149AL  26062.77513577  .00332441  00000-0  34592-2 0  9993",
    "line2": "2 60502  97.3700 147.0155 0006853 264.1942  95.8536 15.63493615 86186",
    "meta": {
      "display_name": "PlanetScope-60502",
      "type": "optical",
      "swath_km": 8.0,
      "resolution_m": 4.0,
      "off_nadir_deg": 0,
      "altitude_km": 525.0,
      "priority": 10
    }
  },
  "60503": {
    "name": "PlanetScope-60503",
    "line1": "1 60503U 24149AM  26062.79202427  .00260693  00000-0  20589-2 0  9995",
    "line2": "2 60503  97.3766 148.6284 0006237 237.8958 122.1700 15.70583493 86267",
    "meta": {
      "display_name": "PlanetScope-60503",
      "type": "optical",
      "swath_km": 8.0,
      "resolution_m": 4.0,
      "off_nadir_deg": 0,
      "altitude_km": 525.0,
      "priority": 10
    }
  },
  "60505": {
    "name": "PlanetScope-60505",
    "line1": "1 60505U 24149AP  26062.78322820  .00027267  00000-0  70996-3 0  9992",
    "line2": "2 60505  97.3774 146.2247 0002882 301.1806  58.9157 15.38853501 86132",
    "meta": {
      "display_name": "PlanetScope-60505",
      "type": "optical",
      "swath_km": 8.0,
      "resolution_m": 4.0,
      "off_nadir_deg": 0,
      "altitude_km": 525.0,
      "priority": 10
    }
  },
  "60509": {
    "name": "PlanetScope-60509",
    "line1": "1 60509U 24149AT  26062.74980443  .00029075  00000-0  72623-3 0  9991",
    "line2": "2 60509  97.3859 147.3199 0001990 321.8734  38.2371 15.40114681 86160",
    "meta": {
      "display_name": "PlanetScope-60509",
      "type": "optical",
      "swath_km": 8.0,
      "resolution_m": 4.0,
      "off_nadir_deg": 0,
      "altitude_km": 525.0,
      "priority": 10
    }
  },
  "60511": {
    "name": "PlanetScope-60511",
    "line1": "1 60511U 24149AV  26062.79247868  .00059738  00000-0  13683-2 0  9995",
    "line2": "2 60511  97.3860 147.9188 0002687 299.7883  60.3097 15.42568694 86206",
    "meta": {
      "display_name": "PlanetScope-60511",
      "type": "optical",
      "swath_km": 8.0,
      "resolution_m": 4.0,
      "off_nadir_deg": 0,
      "altitude_km": 525.0,
      "priority": 10
    }
  },
  "60512": {
    "name": "PlanetScope-60512",
    "line1": "1 60512U 24149AW  26062.78833708  .00026181  00000-0  68870-3 0  9994",
    "line2": "2 60512  97.3774 146.3335 0003431 291.8988  68.1892 15.38544691 86143",
    "meta": {
      "display_name": "PlanetScope-60512",
      "type": "optical",
      "swath_km": 8.0,
      "resolution_m": 4.0,
      "off_nadir_deg": 0,
      "altitude_km": 525.0,
      "priority": 10
    }
  },
  "60513": {
    "name": "PlanetScope-60513",
    "line1": "1 60513U 24149AX  26062.87689131  .00014784  00000-0  47411-3 0  9998",
    "line2": "2 60513  97.3881 144.8122 0003033 335.4265  24.6832 15.32433844 86008",
    "meta": {
      "display_name": "PlanetScope-60513",
      "type": "optical",
      "swath_km": 8.0,
      "resolution_m": 4.0,
      "off_nadir_deg": 0,
      "altitude_km": 525.0,
      "priority": 10
    }
  },
  "60514": {
    "name": "PlanetScope-60514",
    "line1": "1 60514U 24149AY  26062.76908763  .00022276  00000-0  61006-3 0  9993",
    "line2": "2 60514  97.3845 146.2680 0001715 332.0125  28.1027 15.37334840 86104",
    "meta": {
      "display_name": "PlanetScope-60514",
      "type": "optical",
      "swath_km": 8.0,
      "resolution_m": 4.0,
      "off_nadir_deg": 0,
      "altitude_km": 525.0,
      "priority": 10
    }
  },
  "60515": {
    "name": "PlanetScope-60515",
    "line1": "1 60515U 24149AZ  26062.76534613  .00336913  00000-0  21853-2 0  9994",
    "line2": "2 60515  97.3683 149.1883 0004759 239.1011 120.9786 15.75039077 86327",
    "meta": {
      "display_name": "PlanetScope-60515",
      "type": "optical",
      "swath_km": 8.0,
      "resolution_m": 4.0,
      "off_nadir_deg": 0,
      "altitude_km": 525.0,
      "priority": 10
    }
  },
  "60516": {
    "name": "PlanetScope-60516",
    "line1": "1 60516U 24149BA  26062.78906331  .00020884  00000-0  58990-3 0  9997",
    "line2": "2 60516  97.3846 145.8218 0002354 320.7118  39.3955 15.36383035 86074",
    "meta": {
      "display_name": "PlanetScope-60516",
      "type": "optical",
      "swath_km": 8.0,
      "resolution_m": 4.0,
      "off_nadir_deg": 0,
      "altitude_km": 525.0,
      "priority": 10
    }
  }
}